      2.10          N: GNSS NAV DATA                        RINEX VERSION / TYPE
fic2rin                                 12/11/2022 00:17:40 PGM / RUN BY / DATE
                                                            END OF HEADER
1  22 12 10  1 59 28.0  .239892862737D-03 -.522959453519D-11  .000000000000D+00
     .100000000000D+03 -.657812500000D+02  .413588656199D-08  .808966019425D-01
    -.336952507496D-05  .120992239099D-01  .117719173431D-05  .515365613365D+04
     .525568000000D+06 -.577419996262D-07 -.887070146284D+00  .173225998878D-06
     .989035106311D+00  .369906250000D+03  .939193889652D+00 -.832070373357D-08
    -.246795994329D-09  .100000000000D+01  .223900000000D+04  .000000000000D+00
     .240000000000D+01  .000000000000D+00  .465661287308D-08  .100000000000D+03
     .518400000000D+06  .400000000000D+01
11 22 12 10  2  0  0.0 -.540823675692D-04 -.716227077646D-11  .000000000000D+00
     .235000000000D+03 -.707187500000D+02  .454947521819D-08  .167231241674D+01
    -.368431210518D-05  .809078337625D-03  .136531889439D-05  .515367789650D+04
     .525600000000D+06  .204890966415D-07 -.850206177471D+00  .409781932831D-07
     .964379759408D+00  .355562500000D+03 -.278613616585D+01 -.829284543030D-08
    -.206437170365D-09  .100000000000D+01  .223900000000D+04  .000000000000D+00
     .240000000000D+01  .000000000000D+00 -.884756445885D-08  .100300000000D+04
     .518400000000D+06  .400000000000D+01
2  22 12 10  1 59 44.0 -.633824616671D-03  .193267624127D-11  .000000000000D+00
     .900000000000D+01 -.520312500000D+02  .470519599030D-08 -.864960058864D+00
    -.259838998318D-05  .200806405628D-01  .138394534588D-05  .515369189644D+04
     .525584000000D+06 -.277534127235D-06 -.982462611831D+00 -.316649675369D-07
     .966763714618D+00  .359218750000D+03 -.135574311059D+01 -.869286209260D-08
    -.753602819154D-10  .100000000000D+01  .223900000000D+04  .000000000000D+00
     .240000000000D+01  .000000000000D+00 -.176951289177D-07  .900000000000D+01
     .518940000000D+06  .400000000000D+01
13 22 12 10  1 59 44.0  .439257360995D-03  .659383658785D-11  .000000000000D+00
     .400000000000D+01  .540625000000D+01  .443482758551D-08  .183611780008D+01
     .225380063057D-06  .671782589052D-02  .707060098648D-05  .515366695595D+04
     .525584000000D+06 -.137835741043D-06  .132801540458D+01 -.108033418655D-06
     .968826854819D+00  .247875000000D+03  .951594319140D+00 -.783746931920D-08
     .483591572101D-09  .100000000000D+01  .223900000000D+04  .000000000000D+00
     .240000000000D+01  .000000000000D+00 -.116415321827D-07  .400000000000D+01
     .522450000000D+06  .400000000000D+01
27 22 12 10  1 59 44.0  .157278496772D-03 -.100044417195D-10  .000000000000D+00
     .280000000000D+02  .135156250000D+03  .429482175371D-08  .233841977659D+01
     .688061118126D-05  .108874120051D-01  .376813113689D-05  .515366685867D+04
     .525584000000D+06 -.160187482834D-06 -.195279973939D+01 -.201165676117D-06
     .969785389466D+00  .311375000000D+03  .684579041271D+00 -.797176062726D-08
     .264653881039D-09  .100000000000D+01  .223900000000D+04  .000000000000D+00
     .240000000000D+01  .000000000000D+00  .139698386192D-08  .280000000000D+02
     .522600000000D+06  .400000000000D+01
5  22 12 10  1 59 44.0 -.107474159449D-03 -.147792889038D-11  .000000000000D+00
     .300000000000D+02 -.107437500000D+03  .411088552060D-08  .262470094972D+01
    -.562705099583D-05  .585446134210D-02  .872090458870D-05  .515358289909D+04
     .525584000000D+06  .577419996262D-07  .100403136982D+00 -.502914190292D-07
     .963998356184D+00  .213531250000D+03  .113976600456D+01 -.767210528827D-08
     .335728270144D-10  .100000000000D+01  .223900000000D+04  .000000000000D+00
     .240000000000D+01  .000000000000D+00 -.111758708954D-07  .300000000000D+02
     .525450000000D+06  .400000000000D+01
2  22 12 10  3 59 44.0 -.633810646832D-03  .193267624127D-11  .000000000000D+00
     .100000000000D+02 -.435000000000D+02  .471305346045D-08  .185241672631D+00
    -.230595469475D-05  .200807387009D-01  .142864882946D-05  .515369248390D+04
     .532784000000D+06 -.191852450371D-06 -.982525025768D+00 -.160187482834D-06
     .966763075323D+00  .359343750000D+03 -.135577487347D+01 -.871964892266D-08
    -.142863093678D-09  .100000000000D+01  .223900000000D+04  .000000000000D+00
     .240000000000D+01  .000000000000D+00 -.176951289177D-07  .100000000000D+02
     .525600000000D+06  .400000000000D+01
5  22 12 10  3 59 44.0 -.107484869659D-03 -.147792889038D-11  .000000000000D+00
     .560000000000D+02 -.112906250000D+03  .414052961254D-08 -.260824122538D+01
    -.586733222008D-05  .585535750724D-02  .849924981594D-05  .515358123016D+04
     .532784000000D+06  .782310962677D-07  .100347787477D+00 -.149011611938D-07
     .963998634138D+00  .217187500000D+03  .113975713489D+01 -.767639118108D-08
     .567880797372D-10  .100000000000D+01  .223900000000D+04  .000000000000D+00
     .240000000000D+01  .000000000000D+00 -.111758708954D-07  .560000000000D+02
     .525600000000D+06  .400000000000D+01
13 22 12 10  3 59 44.0  .439304858446D-03  .659383658785D-11  .000000000000D+00
     .360000000000D+02  .200000000000D+01  .436589614281D-08  .288635306165D+01
     .987201929092D-07  .671836594120D-02  .719912350178D-05  .515366577911D+04
     .532784000000D+06  .502914190292D-07  .132795984880D+01 -.633299350739D-07
     .968831117762D+00  .244406250000D+03  .951543267688D+00 -.765710466343D-08
     .470733893670D-09  .100000000000D+01  .223900000000D+04  .000000000000D+00
     .240000000000D+01  .000000000000D+00 -.116415321827D-07  .360000000000D+02
     .525600000000D+06  .400000000000D+01
27 22 12 10  3 59 44.0  .157205853611D-03 -.100044417195D-10  .000000000000D+00
     .290000000000D+02  .122125000000D+03  .425589156068D-08 -.289458542834D+01
     .615045428276D-05  .108890371630D-01  .399164855480D-05  .515366395950D+04
     .532784000000D+06 -.186264514923D-08 -.195285651524D+01 -.165775418282D-06
     .969787689173D+00  .309093750000D+03  .684582362095D+00 -.787639951223D-08
     .264653881039D-09  .100000000000D+01  .223900000000D+04  .000000000000D+00
     .240000000000D+01  .000000000000D+00  .139698386192D-08  .290000000000D+02
     .525600000000D+06  .400000000000D+01
1  22 12 10  4  0  0.0  .239854678512D-03 -.522959453519D-11  .000000000000D+00
     .101000000000D+03 -.668750000000D+02  .417481675502D-08  .113576052169D+01
    -.346079468727D-05  .120989736170D-01  .129081308842D-05  .515365564537D+04
     .532800000000D+06 -.176951289177D-06 -.887130125925D+00  .135973095894D-06
     .989033135760D+00  .371656250000D+03  .939186677466D+00 -.828641659108D-08
    -.266082511976D-09  .100000000000D+01  .223900000000D+04  .000000000000D+00
     .240000000000D+01  .000000000000D+00  .465661287308D-08  .101000000000D+03
     .525600000000D+06  .400000000000D+01
3  22 12 10  4  0  0.0 -.375224277377D-03 -.227373675443D-12  .000000000000D+00
     .380000000000D+02 -.117468750000D+03  .388659046352D-08  .317336774922D-02
    -.613555312157D-05  .443130941130D-02  .953301787376D-05  .515376921272D+04
     .532800000000D+06 -.931322574615D-08  .144669273782D+00  .782310962677D-07
     .976970570129D+00  .203593750000D+03  .104392674481D+01 -.770139222247D-08
     .453590322429D-10  .100000000000D+01  .223900000000D+04  .000000000000D+00
     .340000000000D+01  .000000000000D+00  .186264514923D-08  .380000000000D+02
     .525600000000D+06  .400000000000D+01
12 22 12 10  4  0  0.0 -.314122531563D-03 -.454747350886D-11  .000000000000D+00
     .450000000000D+02  .677500000000D+02  .418160275197D-08 -.236793461844D+00
     .347569584846D-05  .870624592062D-02  .103302299976D-04  .515370180893D+04
     .532800000000D+06 -.949949026108D-07 -.292696530308D+01  .150874257088D-06
     .967536729308D+00  .189968750000D+03  .132093876366D+01 -.778853870961D-08
    -.260725145963D-09  .100000000000D+01  .223900000000D+04  .000000000000D+00
     .340000000000D+01  .000000000000D+00 -.125728547573D-07  .450000000000D+02
     .525600000000D+06  .400000000000D+01
